CCSDS_OMM_VERS = 2.0
CREATION_DATE  = 
ORIGINATOR     = 

OBJECT_NAME    = AQUA
OBJECT_ID      = 2002-022A
CENTER_NAME    = EARTH
REF_FRAME      = TEME
TIME_SYSTEM    = UTC
MEAN_ELEMENT_THEORY = SGP/SGP4

EPOCH          = 2026-03-22T21:15:48.348000
MEAN_MOTION    = 14.62006257
ECCENTRICITY   = .00008998
INCLINATION    = 98.4197
RA_OF_ASC_NODE = 49.4935
ARG_OF_PERICENTER = 116.2297
MEAN_ANOMALY   = 265.2019

EPHEMERIS_TYPE = 0
CLASSIFICATION_TYPE = U
NORAD_CAT_ID   = 27424
ELEMENT_SET_NO = 999
REV_AT_EPOCH   = 27066
BSTAR          = .21595286E-3
MEAN_MOTION_DOT = .1034E-4
MEAN_MOTION_DDOT = 0

CCSDS_OMM_VERS = 2.0
CREATION_DATE  = 
ORIGINATOR     = 

OBJECT_NAME    = CZ-4B R/B
OBJECT_ID      = 2002-024C
CENTER_NAME    = EARTH
REF_FRAME      = TEME
TIME_SYSTEM    = UTC
MEAN_ELEMENT_THEORY = SGP/SGP4

EPOCH          = 2026-03-22T21:32:14.689536
MEAN_MOTION    = 14.14549911
ECCENTRICITY   = .00497991
INCLINATION    = 98.8810
RA_OF_ASC_NODE = 135.2359
ARG_OF_PERICENTER = 346.7271
MEAN_ANOMALY   = 186.3728

EPHEMERIS_TYPE = 0
CLASSIFICATION_TYPE = U
NORAD_CAT_ID   = 27432
ELEMENT_SET_NO = 999
REV_AT_EPOCH   = 23110
BSTAR          = .35868985E-4
MEAN_MOTION_DOT = .25E-6
MEAN_MOTION_DDOT = 0

CCSDS_OMM_VERS = 2.0
CREATION_DATE  = 
ORIGINATOR     = 

OBJECT_NAME    = MIDORI II (ADEOS-II)
OBJECT_ID      = 2002-056A
CENTER_NAME    = EARTH
REF_FRAME      = TEME
TIME_SYSTEM    = UTC
MEAN_ELEMENT_THEORY = SGP/SGP4

EPOCH          = 2026-03-22T19:47:20.510880
MEAN_MOTION    = 14.29294621
ECCENTRICITY   = .00010377
INCLINATION    = 98.7792
RA_OF_ASC_NODE = 40.3947
ARG_OF_PERICENTER = 27.3113
MEAN_ANOMALY   = 332.8123

EPHEMERIS_TYPE = 0
CLASSIFICATION_TYPE = U
NORAD_CAT_ID   = 27597
ELEMENT_SET_NO = 999
REV_AT_EPOCH   = 21217
BSTAR          = .13792619E-3
MEAN_MOTION_DOT = .306E-5
MEAN_MOTION_DDOT = 0

CCSDS_OMM_VERS = 2.0
CREATION_DATE  = 
ORIGINATOR     = 

OBJECT_NAME    = H-2A R/B
OBJECT_ID      = 2002-056E
CENTER_NAME    = EARTH
REF_FRAME      = TEME
TIME_SYSTEM    = UTC
MEAN_ELEMENT_THEORY = SGP/SGP4

EPOCH          = 2026-03-22T19:49:54.211296
MEAN_MOTION    = 14.33768959
ECCENTRICITY   = .00711807
INCLINATION    = 98.3226
RA_OF_ASC_NODE = 41.6935
ARG_OF_PERICENTER = 121.8986
MEAN_ANOMALY   = 294.5244

EPHEMERIS_TYPE = 0
CLASSIFICATION_TYPE = U
NORAD_CAT_ID   = 27601
ELEMENT_SET_NO = 999
REV_AT_EPOCH   = 21599
BSTAR          = .11115562E-3
MEAN_MOTION_DOT = .277E-5
MEAN_MOTION_DDOT = 0

CCSDS_OMM_VERS = 2.0
CREATION_DATE  = 
ORIGINATOR     = 

OBJECT_NAME    = CZ-4B R/B
OBJECT_ID      = 2003-049C
CENTER_NAME    = EARTH
REF_FRAME      = TEME
TIME_SYSTEM    = UTC
MEAN_ELEMENT_THEORY = SGP/SGP4

EPOCH          = 2026-03-22T22:20:16.634112
MEAN_MOTION    = 14.55031756
ECCENTRICITY   = .00479203
INCLINATION    = 98.6891
RA_OF_ASC_NODE = 77.3563
ARG_OF_PERICENTER = 189.9467
MEAN_ANOMALY   = 170.0785

EPHEMERIS_TYPE = 0
CLASSIFICATION_TYPE = U
NORAD_CAT_ID   = 28059
ELEMENT_SET_NO = 999
REV_AT_EPOCH   = 18852
BSTAR          = .93967897E-4
MEAN_MOTION_DOT = .359E-5
MEAN_MOTION_DDOT = 0

CCSDS_OMM_VERS = 2.0
CREATION_DATE  = 
ORIGINATOR     = 

OBJECT_NAME    = CZ-2C R/B
OBJECT_ID      = 2004-012C
CENTER_NAME    = EARTH
REF_FRAME      = TEME
TIME_SYSTEM    = UTC
MEAN_ELEMENT_THEORY = SGP/SGP4

EPOCH          = 2026-03-22T21:44:47.443488
MEAN_MOTION    = 15.66088578
ECCENTRICITY   = .00129847
INCLINATION    = 97.7190
RA_OF_ASC_NODE = 148.4644
ARG_OF_PERICENTER = 255.7281
MEAN_ANOMALY   = 104.2536

EPHEMERIS_TYPE = 0
CLASSIFICATION_TYPE = U
NORAD_CAT_ID   = 28222
ELEMENT_SET_NO = 999
REV_AT_EPOCH   = 20634
BSTAR          = .68411518E-3
MEAN_MOTION_DOT = .70695E-3
MEAN_MOTION_DDOT = 0

CCSDS_OMM_VERS = 2.0
CREATION_DATE  = 
ORIGINATOR     = 

OBJECT_NAME    = SL-16 R/B
OBJECT_ID      = 2004-021B
CENTER_NAME    = EARTH
REF_FRAME      = TEME
TIME_SYSTEM    = UTC
MEAN_ELEMENT_THEORY = SGP/SGP4

EPOCH          = 2026-03-22T18:01:25.782240
MEAN_MOTION    = 14.14593300
ECCENTRICITY   = .00046817
INCLINATION    = 71.0001
RA_OF_ASC_NODE = 205.0820
ARG_OF_PERICENTER = 353.6018
MEAN_ANOMALY   = 6.5044

EPHEMERIS_TYPE = 0
CLASSIFICATION_TYPE = U
NORAD_CAT_ID   = 28353
ELEMENT_SET_NO = 999
REV_AT_EPOCH   = 12468
BSTAR          = -.6045375E-5
MEAN_MOTION_DOT = -.59E-6
MEAN_MOTION_DDOT = 0

CCSDS_OMM_VERS = 2.0
CREATION_DATE  = 
ORIGINATOR     = 

OBJECT_NAME    = CZ-4B R/B
OBJECT_ID      = 2004-035C
CENTER_NAME    = EARTH
REF_FRAME      = TEME
TIME_SYSTEM    = UTC
MEAN_ELEMENT_THEORY = SGP/SGP4

EPOCH          = 2026-03-22T16:03:53.435808
MEAN_MOTION    = 15.29280574
ECCENTRICITY   = .0030052
INCLINATION    = 97.3475
RA_OF_ASC_NODE = 115.7567
ARG_OF_PERICENTER = 283.1661
MEAN_ANOMALY   = 76.6227

EPHEMERIS_TYPE = 0
CLASSIFICATION_TYPE = U
NORAD_CAT_ID   = 28415
ELEMENT_SET_NO = 999
REV_AT_EPOCH   = 18189
BSTAR          = .32384995E-3
MEAN_MOTION_DOT = .9249E-4
MEAN_MOTION_DDOT = 0

CCSDS_OMM_VERS = 2.0
CREATION_DATE  = 
ORIGINATOR     = 

OBJECT_NAME    = CZ-2C R/B
OBJECT_ID      = 2004-046B
CENTER_NAME    = EARTH
REF_FRAME      = TEME
TIME_SYSTEM    = UTC
MEAN_ELEMENT_THEORY = SGP/SGP4

EPOCH          = 2026-03-22T17:42:40.938048
MEAN_MOTION    = 14.26996419
ECCENTRICITY   = .01404618
INCLINATION    = 98.1978
RA_OF_ASC_NODE = 355.9093
ARG_OF_PERICENTER = 116.0744
MEAN_ANOMALY   = 245.4973

EPHEMERIS_TYPE = 0
CLASSIFICATION_TYPE = U
NORAD_CAT_ID   = 28480
ELEMENT_SET_NO = 999
REV_AT_EPOCH   = 11036
BSTAR          = .66983345E-4
MEAN_MOTION_DOT = .141E-5
MEAN_MOTION_DDOT = 0

CCSDS_OMM_VERS = 2.0
CREATION_DATE  = 
ORIGINATOR     = 

OBJECT_NAME    = ARIANE 5 R/B
OBJECT_ID      = 2004-049H
CENTER_NAME    = EARTH
REF_FRAME      = TEME
TIME_SYSTEM    = UTC
MEAN_ELEMENT_THEORY = SGP/SGP4

EPOCH          = 2026-03-22T21:41:54.560544
MEAN_MOTION    = 14.85288521
ECCENTRICITY   = .00830983
INCLINATION    = 98.2647
RA_OF_ASC_NODE = 250.8576
ARG_OF_PERICENTER = 308.7820
MEAN_ANOMALY   = 50.5991

EPHEMERIS_TYPE = 0
CLASSIFICATION_TYPE = U
NORAD_CAT_ID   = 28499
ELEMENT_SET_NO = 999
REV_AT_EPOCH   = 14775
BSTAR          = .93497239E-4
MEAN_MOTION_DOT = .788E-5
MEAN_MOTION_DDOT = 0

CCSDS_OMM_VERS = 2.0
CREATION_DATE  = 
ORIGINATOR     = 

OBJECT_NAME    = CZ-2D R/B
OBJECT_ID      = 2005-024B
CENTER_NAME    = EARTH
REF_FRAME      = TEME
TIME_SYSTEM    = UTC
MEAN_ELEMENT_THEORY = SGP/SGP4

EPOCH          = 2026-03-22T14:18:55.856448
MEAN_MOTION    = 15.61288373
ECCENTRICITY   = .00035614
INCLINATION    = 97.3588
RA_OF_ASC_NODE = 97.2266
ARG_OF_PERICENTER = 8.4663
MEAN_ANOMALY   = 351.6654

EPHEMERIS_TYPE = 0
CLASSIFICATION_TYPE = U
NORAD_CAT_ID   = 28738
ELEMENT_SET_NO = 999
REV_AT_EPOCH   = 14179
BSTAR          = .55420732E-3
MEAN_MOTION_DOT = .47113E-3
MEAN_MOTION_DDOT = 0

CCSDS_OMM_VERS = 2.0
CREATION_DATE  = 
ORIGINATOR     = 

OBJECT_NAME    = ALOS (DAICHI)
OBJECT_ID      = 2006-002A
CENTER_NAME    = EARTH
REF_FRAME      = TEME
TIME_SYSTEM    = UTC
MEAN_ELEMENT_THEORY = SGP/SGP4

EPOCH          = 2026-03-22T20:17:57.507072
MEAN_MOTION    = 14.69848909
ECCENTRICITY   = .00006875
INCLINATION    = 98.1241
RA_OF_ASC_NODE = 37.7373
ARG_OF_PERICENTER = 92.4840
MEAN_ANOMALY   = 267.6445

EPHEMERIS_TYPE = 0
CLASSIFICATION_TYPE = U
NORAD_CAT_ID   = 28931
ELEMENT_SET_NO = 999
REV_AT_EPOCH   = 7541
BSTAR          = .23317884E-3
MEAN_MOTION_DOT = .1344E-4
MEAN_MOTION_DDOT = 0

