AQUA                    
1 27424U 02022A   26081.88597625  .00001034  00000+0  21595-3 0  9994
2 27424  98.4197  49.4935 0000899 116.2297 265.2019 14.62006257270666
CZ-4B R/B               
1 27432U 02024C   26081.89739224  .00000025  00000+0  35869-4 0  9998
2 27432  98.8810 135.2359 0049799 346.7271 186.3728 14.14549911231101
MIDORI II (ADEOS-II)    
1 27597U 02056A   26081.82454295  .00000306  00000+0  13793-3 0  9993
2 27597  98.7792  40.3947 0001037  27.3113 332.8123 14.29294621212174
H-2A R/B                
1 27601U 02056E   26081.82632189  .00000277  00000+0  11116-3 0  9993
2 27601  98.3226  41.6935 0071180 121.8986 294.5244 14.33768959215999
CZ-4B R/B               
1 28059U 03049C   26081.93074808  .00000359  00000+0  93968-4 0  9991
2 28059  98.6891  77.3563 0047920 189.9467 170.0785 14.55031756188523
CZ-2C R/B               
1 28222U 04012C   26081.90610467  .00070695  00000+0  68412-3 0  9993
2 28222  97.7190 148.4644 0012984 255.7281 104.2536 15.66088578206346
SL-16 R/B               
1 28353U 04021B   26081.75099285 -.00000059  00000+0 -60454-5 0  9999
2 28353  71.0001 205.0820 0004681 353.6018   6.5044 14.14593300124684
CZ-4B R/B               
1 28415U 04035C   26081.66936847  .00009249  00000+0  32385-3 0  9995
2 28415  97.3475 115.7567 0030052 283.1661  76.6227 15.29280574181896
CZ-2C R/B               
1 28480U 04046B   26081.73797382  .00000141  00000+0  66983-4 0  9990
2 28480  98.1978 355.9093 0140461 116.0744 245.4973 14.26996419110365
ARIANE 5 R/B            
1 28499U 04049H   26081.90410371  .00000788  00000+0  93497-4 0  9999
2 28499  98.2647 250.8576 0083098 308.7820  50.5991 14.85288521147756
CZ-2D R/B               
1 28738U 05024B   26081.59647982  .00047113  00000+0  55421-3 0  9991
2 28738  97.3588  97.2266 0003561   8.4663 351.6654 15.61288373141790
ALOS (DAICHI)           
1 28931U 06002A   26081.84580448  .00001344  00000+0  23318-3 0  9990
2 28931  98.1241  37.7373 0000687  92.4840 267.6445 14.69848909 75417
